{"type": "FeatureCollection", "features": [ {"type": "Feature", "properties": {"norad_id": 32464, "name": "FENGYUN 1C DEB", "group": "fengyun-1c-debris", "lat": 57.461320629838085, "lon": -146.578779879408, "alt_km": 562.2383611909063, "timestamp": "2025-12-24T03:53:29.933854+00:00", "meta": {"OBJECT_NAME": "FENGYUN 1C DEB", "OBJECT_ID": "1999-025DCC", "EPOCH": "2025-12-23T19:17:58.807968", "MEAN_MOTION": 14.93226381, "ECCENTRICITY": 0.0112727, "INCLINATION": 97.3536, "RA_OF_ASC_NODE": 21.4084, "ARG_OF_PERICENTER": 198.7092, "MEAN_ANOMALY": 160.9971, "EPHEMERIS_TYPE": 0, "CLASSIFICATION_TYPE": "U", "NORAD_CAT_ID": 32464, "ELEMENT_SET_NO": 999, "REV_AT_EPOCH": 60957, "BSTAR": 0.0012101, "MEAN_MOTION_DOT": 0.0001429, "MEAN_MOTION_DDOT": 0}, "tle": {"line1": "1 32464U 99025DCC 25357.80415287  .00014290  00000+0  12101-2 0  9993", "line2": "2 32464  97.3536  21.4084 0112727 198.7092 160.9971 14.93226381609578"}}, "geometry": {"type": "Point", "coordinates": [-146.578779879408, 57.461320629838085]}}, {"type": "Feature", "properties": {"norad_id": 33502, "name": "FENGYUN 1C DEB", "group": "fengyun-1c-debris", "lat": -42.090676949093904, "lon": -50.56251438753713, "alt_km": 880.179509839144, "timestamp": "2025-12-24T03:53:29.933865+00:00", "meta": {"OBJECT_NAME": "FENGYUN 1C DEB", "OBJECT_ID": "1999-025DCF", "EPOCH": "2025-12-23T10:04:51.392928", "MEAN_MOTION": 14.21968237, "ECCENTRICITY": 0.0080171, "INCLINATION": 99.0269, "RA_OF_ASC_NODE": 300.4226, "ARG_OF_PERICENTER": 121.8418, "MEAN_ANOMALY": 358.9608, "EPHEMERIS_TYPE": 0, "CLASSIFICATION_TYPE": "U", "NORAD_CAT_ID": 33502, "ELEMENT_SET_NO": 999, "REV_AT_EPOCH": 87107, "BSTAR": 0.0024543, "MEAN_MOTION_DOT": 5.558e-05, "MEAN_MOTION_DDOT": 0}, "tle": {"line1": "1 33502U 99025DCF 25357.42003927  .00005558  00000+0  24543-2 0  9999", "line2": "2 33502  99.0269 300.4226 0080171 121.8418 358.9608 14.21968237871074"}}, "geometry": {"type": "Point", "coordinates": [-50.56251438753713, -42.090676949093904]}}, {"type": "Feature", "properties": {"norad_id": 33599, "name": "FENGYUN 1C DEB", "group": "fengyun-1c-debris", "lat": 41.96118682881236, "lon": -109.55523233845362, "alt_km": 558.5712604387136, "timestamp": "2025-12-24T03:53:29.933875+00:00", "meta": {"OBJECT_NAME": "FENGYUN 1C DEB", "OBJECT_ID": "1999-025DCG", "EPOCH": "2025-12-06T10:36:41.156064", "MEAN_MOTION": 15.14898296, "ECCENTRICITY": 0.0126212, "INCLINATION": 96.6136, "RA_OF_ASC_NODE": 49.0151, "ARG_OF_PERICENTER": 322.3863, "MEAN_ANOMALY": 36.8593, "EPHEMERIS_TYPE": 0, "CLASSIFICATION_TYPE": "U", "NORAD_CAT_ID": 33599, "ELEMENT_SET_NO": 999, "REV_AT_EPOCH": 65908, "BSTAR": 0.0016783, "MEAN_MOTION_DOT": 0.00038297, "MEAN_MOTION_DDOT": 0}, "tle": {"line1": "1 33599U 99025DCG 25340.44214301  .00038297  00000+0  16783-2 0  9992", "line2": "2 33599  96.6136  49.0151 0126212 322.3863  36.8593 15.14898296659088"}}, "geometry": {"type": "Point", "coordinates": [-109.55523233845362, 41.96118682881236]}}, {"type": "Feature", "properties": {"norad_id": 33601, "name": "FENGYUN 1C DEB", "group": "fengyun-1c-debris", "lat": 38.93635196567338, "lon": -19.75142849738138, "alt_km": 764.1925122201919, "timestamp": "2025-12-24T03:53:29.933887+00:00", "meta": {"OBJECT_NAME": "FENGYUN 1C DEB", "OBJECT_ID": "1999-025DCJ", "EPOCH": "2025-12-20T15:39:56.393856", "MEAN_MOTION": 14.07944866, "ECCENTRICITY": 0.01580649, "INCLINATION": 98.315, "RA_OF_ASC_NODE": 150.2281, "ARG_OF_PERICENTER": 120.0605, "MEAN_ANOMALY": 241.635, "EPHEMERIS_TYPE": 0, "CLASSIFICATION_TYPE": "U", "NORAD_CAT_ID": 33601, "ELEMENT_SET_NO": 999, "REV_AT_EPOCH": 90791, "BSTAR": 0.00090389352, "MEAN_MOTION_DOT": 1.684e-05, "MEAN_MOTION_DDOT": 0}, "tle": {"line1": "1 33601U 99025DCJ 25354.65273604  .00001684  00000+0  90389-3 0  9990", "line2": "2 33601  98.3150 150.2281 0158064 120.0605 241.6350 14.07944866907914"}}, "geometry": {"type": "Point", "coordinates": [-19.75142849738138, 38.93635196567338]}}, {"type": "Feature", "properties": {"norad_id": 33603, "name": "FENGYUN 1C DEB", "group": "fengyun-1c-debris", "lat": -66.92616163568827, "lon": 93.6112913001836, "alt_km": 766.426011449973, "timestamp": "2025-12-24T03:53:29.933900+00:00", "meta": {"OBJECT_NAME": "FENGYUN 1C DEB", "OBJECT_ID": "1999-025DCL", "EPOCH": "2025-12-23T02:26:01.945824", "MEAN_MOTION": 14.79974256, "ECCENTRICITY": 0.02200697, "INCLINATION": 98.8064, "RA_OF_ASC_NODE": 293.7889, "ARG_OF_PERICENTER": 39.891, "MEAN_ANOMALY": 321.8241, "EPHEMERIS_TYPE": 0, "CLASSIFICATION_TYPE": "U", "NORAD_CAT_ID": 33603, "ELEMENT_SET_NO": 999, "REV_AT_EPOCH": 99013, "BSTAR": 0.0002845535, "MEAN_MOTION_DOT": 3.178e-05, "MEAN_MOTION_DDOT": 0}, "tle": {"line1": "1 33603U 99025DCL 25357.10141141  .00003178  00000+0  28455-3 0  9990", "line2": "2 33603  98.8064 293.7889 0220069  39.8910 321.8241 14.79974256990134"}}, "geometry": {"type": "Point", "coordinates": [93.6112913001836, -66.92616163568827]}}, {"type": "Feature", "properties": {"norad_id": 33605, "name": "FENGYUN 1C DEB", "group": "fengyun-1c-debris", "lat": 67.18260896309657, "lon": -24.57564577425912, "alt_km": 823.0646270100251, "timestamp": "2025-12-24T03:53:29.933912+00:00", "meta": {"OBJECT_NAME": "FENGYUN 1C DEB", "OBJECT_ID": "1999-025DCN", "EPOCH": "2025-12-10T07:01:31.719072", "MEAN_MOTION": 14.0776111, "ECCENTRICITY": 0.0057186, "INCLINATION": 98.6977, "RA_OF_ASC_NODE": 343.4026, "ARG_OF_PERICENTER": 81.9564, "MEAN_ANOMALY": 295.3635, "EPHEMERIS_TYPE": 0, "CLASSIFICATION_TYPE": "U", "NORAD_CAT_ID": 33605, "ELEMENT_SET_NO": 999, "REV_AT_EPOCH": 59784, "BSTAR": 0.00085517, "MEAN_MOTION_DOT": 1.428e-05, "MEAN_MOTION_DDOT": 0}, "tle": {"line1": "1 33605U 99025DCN 25344.29272823  .00001428  00000+0  85517-3 0  9998", "line2": "2 33605  98.6977 343.4026 0057186  81.9564 295.3635 14.07761110597841"}}, "geometry": {"type": "Point", "coordinates": [-24.57564577425912, 67.18260896309657]}}, {"type": "Feature", "properties": {"norad_id": 33612, "name": "FENGYUN 1C DEB", "group": "fengyun-1c-debris", "lat": -61.17134834295326, "lon": 130.81365808983912, "alt_km": 964.7053124052309, "timestamp": "2025-12-24T03:53:29.933922+00:00", "meta": {"OBJECT_NAME": "FENGYUN 1C DEB", "OBJECT_ID": "1999-025DCV", "EPOCH": "2025-12-13T20:28:43.869792", "MEAN_MOTION": 14.04084486, "ECCENTRICITY": 0.01112826, "INCLINATION": 98.5972, "RA_OF_ASC_NODE": 317.0094, "ARG_OF_PERICENTER": 105.6891, "MEAN_ANOMALY": 255.6586, "EPHEMERIS_TYPE": 0, "CLASSIFICATION_TYPE": "U", "NORAD_CAT_ID": 33612, "ELEMENT_SET_NO": 999, "REV_AT_EPOCH": 56689, "BSTAR": 0.0022025481, "MEAN_MOTION_DOT": 3.646e-05, "MEAN_MOTION_DDOT": 0}, "tle": {"line1": "1 33612U 99025DCV 25347.85328553  .00003646  00000+0  22025-2 0  9991", "line2": "2 33612  98.5972 317.0094 0111282 105.6891 255.6586 14.04084486566896"}}, "geometry": {"type": "Point", "coordinates": [130.81365808983912, -61.17134834295326]}}, {"type": "Feature", "properties": {"norad_id": 33613, "name": "FENGYUN 1C DEB", "group": "fengyun-1c-debris", "lat": 37.20760265366383, "lon": -103.40416531275086, "alt_km": 776.836936966034, "timestamp": "2025-12-24T03:53:29.933932+00:00", "meta": {"OBJECT_NAME": "FENGYUN 1C DEB", "OBJECT_ID": "1999-025DCW", "EPOCH": "2025-12-16T22:39:46.027872", "MEAN_MOTION": 14.33243029, "ECCENTRICITY": 0.00302029, "INCLINATION": 98.6973, "RA_OF_ASC_NODE": 62.6736, "ARG_OF_PERICENTER": 76.3387, "MEAN_ANOMALY": 284.1157, "EPHEMERIS_TYPE": 0, "CLASSIFICATION_TYPE": "U", "NORAD_CAT_ID": 33613, "ELEMENT_SET_NO": 999, "REV_AT_EPOCH": 64570, "BSTAR": 0.001526734, "MEAN_MOTION_DOT": 4.177e-05, "MEAN_MOTION_DDOT": 0}, "tle": {"line1": "1 33613U 99025DCW 25350.94428273  .00004177  00000+0  15267-2 0  9996", "line2": "2 33613  98.6973  62.6736 0030202  76.3387 284.1157 14.33243029645702"}}, "geometry": {"type": "Point", "coordinates": [-103.40416531275086, 37.20760265366383]}}, {"type": "Feature", "properties": {"norad_id": 33618, "name": "FENGYUN 1C DEB", "group": "fengyun-1c-debris", "lat": 41.104456110895015, "lon": -86.603747979467, "alt_km": 584.4900252335183, "timestamp": "2025-12-24T03:53:29.933942+00:00", "meta": {"OBJECT_NAME": "FENGYUN 1C DEB", "OBJECT_ID": "1999-025DDB", "EPOCH": "2025-12-21T11:13:26.263776", "MEAN_MOTION": 14.62206729, "ECCENTRICITY": 0.01650147, "INCLINATION": 98.5304, "RA_OF_ASC_NODE": 83.0891, "ARG_OF_PERICENTER": 113.5029, "MEAN_ANOMALY": 248.3608, "EPHEMERIS_TYPE": 0, "CLASSIFICATION_TYPE": "U", "NORAD_CAT_ID": 33618, "ELEMENT_SET_NO": 999, "REV_AT_EPOCH": 96911, "BSTAR": 0.00057976431, "MEAN_MOTION_DOT": 3.493e-05, "MEAN_MOTION_DDOT": 0}, "tle": {"line1": "1 33618U 99025DDB 25355.46766509  .00003493  00000+0  57976-3 0  9994", "line2": "2 33618  98.5304  83.0891 0165014 113.5029 248.3608 14.62206729969115"}}, "geometry": {"type": "Point", "coordinates": [-86.603747979467, 41.104456110895015]}}, {"type": "Feature", "properties": {"norad_id": 33619, "name": "FENGYUN 1C DEB", "group": "fengyun-1c-debris", "lat": -17.91305967438501, "lon": 70.41937408359547, "alt_km": 807.4418378061591, "timestamp": "2025-12-24T03:53:29.933952+00:00", "meta": {"OBJECT_NAME": "FENGYUN 1C DEB", "OBJECT_ID": "1999-025DDC", "EPOCH": "2025-12-22T11:19:13.450944", "MEAN_MOTION": 14.17552951, "ECCENTRICITY": 0.00502437, "INCLINATION": 98.8607, "RA_OF_ASC_NODE": 65.8437, "ARG_OF_PERICENTER": 17.8745, "MEAN_ANOMALY": 342.4183, "EPHEMERIS_TYPE": 0, "CLASSIFICATION_TYPE": "U", "NORAD_CAT_ID": 33619, "ELEMENT_SET_NO": 999, "REV_AT_EPOCH": 63762, "BSTAR": 0.0012593794, "MEAN_MOTION_DOT": 2.545e-05, "MEAN_MOTION_DDOT": 0}, "tle": {"line1": "1 33619U 99025DDC 25356.47168346  .00002545  00000+0  12594-2 0  9995", "line2": "2 33619  98.8607  65.8437 0050243  17.8745 342.4183 14.17552951637620"}}, "geometry": {"type": "Point", "coordinates": [70.41937408359547, -17.91305967438501]}}]}